#dV2023  1 16 10  0  0.00000000    1682       CTS   FIT  GFZ
## 2245 122400.00000000    30.00000000 59960 0.4166666666667
+    1   L65  0  0  0  0  0  0  0  0  0  0  0  0  0  0  0  0
+          0  0  0  0  0  0  0  0  0  0  0  0  0  0  0  0  0
+          0  0  0  0  0  0  0  0  0  0  0  0  0  0  0  0  0
+          0  0  0  0  0  0  0  0  0  0  0  0  0  0  0  0  0
+          0  0  0  0  0  0  0  0  0  0  0  0  0  0  0  0  0
++         0  0  0  0  0  0  0  0  0  0  0  0  0  0  0  0  0
++         0  0  0  0  0  0  0  0  0  0  0  0  0  0  0  0  0
++         0  0  0  0  0  0  0  0  0  0  0  0  0  0  0  0  0
++         0  0  0  0  0  0  0  0  0  0  0  0  0  0  0  0  0
++         0  0  0  0  0  0  0  0  0  0  0  0  0  0  0  0  0
%c L  cc GPS ccc cccc cccc cccc cccc ccccc ccccc ccccc ccccc
%c cc cc ccc ccc cccc cccc cccc cccc ccccc ccccc ccccc ccccc
%f  0.0000000  0.000000000  0.00000000000  0.000000000000000
%f  0.0000000  0.000000000  0.00000000000  0.000000000000000
%i    0    0    0    0      0      0      0      0         0
%i    0    0    0    0      0      0      0      0         0
/* CCCCCCCCCCCCCCCCCCCCCCCCCCCCCCCCCCCCCCCCCCCCCCCCCCCCCCCCCCCCCCCCCCCCCCCCCCCCC
/* C                             GFZ RSO-ORBIT                                 C
/* C DOI: https://doi.org/10.5880/GFZ_ORBIT/RSO/L65_G_v02                      C
/* C                                                                           C
/* C DORIS        RMS: not applicable                                          C
/* C GNSS-E Code  RMS: not applicable                                          C
/* C GNSS-E Phase RMS: not applicable                                          C
/* C GNSS-G Code  RMS:  51.717 [cm]   Obs.acc.:     14325 Obs.eli.:      1220  C
/* C GNSS-G Phase RMS:   4.288 [mm]   Obs.acc.:     14325 Obs.eli.:      1220  C
/* C SLR          RMS:   6.811 [cm]   Obs.acc.:        59 Obs.eli.:         0  C
/* C                                                                           C
/* CCCCCCCCCCCCCCCCCCCCCCCCCCCCCCCCCCCCCCCCCCCCCCCCCCCCCCCCCCCCCCCCCCCCCCCCCCCCC
*  2023  1 16 19 46 30.00000000
PL65   5028.069075  -4680.520582   -268.787638   6967.879068
VL65   -318.665745  -4715.666190  76080.380763 999999.999999
*  2023  1 16 19 47  0.00000000
PL65   5024.318696  -4692.082678    -40.439688   6968.347080
VL65  -2180.101772  -2990.330302  76137.520000 999999.999999
*  2023  1 16 19 47 30.00000000
PL65   5014.998436  -4698.451144    187.953068   6968.815124
VL65  -4031.566671  -1253.575161  76110.248262 999999.999999
*  2023  1 16 19 48  0.00000000
PL65   5000.141374  -4699.594688    416.137419   6969.283290
VL65  -5870.954709    492.620146  75998.597247 999999.999999
*  2023  1 16 19 48 30.00000000
PL65   4979.786868  -4695.487982    643.860397   6969.751366
VL65  -7696.183299   2246.256724  75802.695443 999999.999999
*  2023  1 16 19 49  0.00000000
PL65   4953.980491  -4686.111722    870.869563   6970.219444
VL65  -9505.195639   4005.318828  75522.768007 999999.999999
*  2023  1 16 19 49 30.00000000
PL65   4922.773940  -4671.452672   1096.913297   6970.687416
VL65 -11295.963436   5767.776738  75159.135517 999999.999999
*  2023  1 16 19 50  0.00000000
PL65   4886.224954  -4651.503707   1321.741083   6971.155358
VL65 -13066.488670   7531.588656  74712.212905 999999.999999
*  2023  1 16 19 50 30.00000000
PL65   4844.397218  -4626.263838   1545.103791   6971.623289
VL65 -14814.805174   9294.703141  74182.509454 999999.999999
*  2023  1 16 19 51  0.00000000
PL65   4797.360265  -4595.738243   1766.753959   6972.091498
VL65 -16538.980680  11055.062304  73570.628647 999999.999999
*  2023  1 16 19 51 30.00000000
PL65   4745.189372  -4559.938280   1986.446079   6972.559683
VL65 -18237.119703  12810.604852  72877.267437 999999.999999
*  2023  1 16 19 52  0.00000000
PL65   4687.965441  -4518.881493   2203.936869   6973.027826
VL65 -19907.366422  14559.268648  72103.214706 999999.999999
*  2023  1 16 19 52 30.00000000
PL65   4625.774881  -4472.591608   2418.985552   6973.495951
VL65 -21547.906521  16298.992696  71249.349814 999999.999999
*  2023  1 16 19 53  0.00000000
PL65   4558.709481  -4421.098534   2631.354122   6973.963997
VL65 -23156.968958  18027.719417  70316.641852 999999.999999
*  2023  1 16 19 53 30.00000000
PL65   4486.866272  -4364.438341   2840.807615   6974.432087
VL65 -24732.828182  19743.397452  69306.148516 999999.999999
*  2023  1 16 19 54  0.00000000
PL65   4410.347394  -4302.653241   3047.114370   6974.900154
VL65 -26273.806112  21443.984193  68219.014373 999999.999999
*  2023  1 16 19 54 30.00000000
PL65   4329.259947  -4235.791559   3250.046288   6975.368267
VL65 -27778.273832  23127.447991  67056.469398 999999.999999
*  2023  1 16 19 55  0.00000000
PL65   4243.715841  -4163.907695   3449.379086   6975.836320
VL65 -29244.653527  24791.770536  65819.827696 999999.999999
*  2023  1 16 19 55 30.00000000
PL65   4153.831641  -4087.062080   3644.892551   6976.304561
VL65 -30671.420589  26434.949531  64510.485912 999999.999999
*  2023  1 16 19 56  0.00000000
PL65   4059.728402  -4005.321125   3836.370776   6976.772908
VL65 -32057.105413  28055.001548  63129.921280 999999.999999
*  2023  1 16 19 56 30.00000000
PL65   3961.531506  -3918.757160   4023.602409   6977.241232
VL65 -33400.294742  29649.964847  61679.689554 999999.999999
*  2023  1 16 19 57  0.00000000
PL65   3859.370486  -3827.448363   4206.380876   6977.710331
VL65 -34699.633158  31217.902055  60161.422949 999999.999999
*  2023  1 16 19 57 30.00000000
PL65   3753.378856  -3731.478685   4384.504615   6978.179506
VL65 -35953.824735  32756.902780  58576.827357 999999.999999
*  2023  1 16 19 58  0.00000000
PL65   3643.693922  -3630.937766   4557.777286   6978.648120
VL65 -37161.633725  34265.085392  56927.679081 999999.999999
*  2023  1 16 19 58 30.00000000
PL65   3530.456614  -3525.920844   4726.007979   6979.116403
VL65 -38321.884421  35740.598197  55215.822765 999999.999999
*  2023  1 16 19 59  0.00000000
PL65   3413.811292  -3416.528667   4889.011424   6979.584428
VL65 -39433.461537  37181.621409  53443.170608 999999.999999
*  2023  1 16 19 59 30.00000000
PL65   3293.905574  -3302.867392   5046.608184   6980.052277
VL65 -40495.311566  38586.369790  51611.701303 999999.999999
*  2023  1 16 20  0  0.00000000
PL65   3170.890141  -3185.048473   5198.624856   6980.520289
VL65 -41506.444976  39953.095562  49723.458103 999999.999999
*  2023  1 16 20  0 30.00000000
PL65   3044.918546  -3063.188550   5344.894260   6980.988137
VL65 -42465.938510  41280.091361  47780.544625 999999.999999
*  2023  1 16 20  1  0.00000000
PL65   2916.147009  -2937.409322   5485.255611   6981.456264
VL65 -43372.935185  42565.691313  45785.120052 999999.999999
*  2023  1 16 20  1 30.00000000
PL65   2784.734226  -2807.837423   5619.554681   6981.924553
VL65 -44226.643148  43808.271286  43739.397617 999999.999999
*  2023  1 16 20  2  0.00000000
PL65   2650.841167  -2674.604296   5747.643964   6982.392643
VL65 -45026.336463  45006.251187  41645.643941 999999.999999
*  2023  1 16 20  2 30.00000000
PL65   2514.630882  -2537.846051   5869.382829   6982.860715
VL65 -45771.356329  46158.097947  39506.175881 999999.999999
*  2023  1 16 20  3  0.00000000
PL65   2376.268296  -2397.703327   5984.637666   6983.328781
VL65 -46461.111050  47262.327271  37323.356614 999999.999999
*  2023  1 16 20  3 30.00000000
PL65   2235.920009  -2254.321141   6093.282023   6983.796789
VL65 -47095.075142  48317.504202  35099.592960 999999.999999
*  2023  1 16 20  4  0.00000000
PL65   2093.754098  -2107.848740   6195.196728   6984.264778
VL65 -47672.788773  49322.244323  32837.334772 999999.999999
*  2023  1 16 20  4 30.00000000
PL65   1949.939922  -1958.439445   6290.270027   6984.732683
VL65 -48193.859036  50275.216746  30539.073395 999999.999999
*  2023  1 16 20  5  0.00000000
PL65   1804.647914  -1806.250485   6378.397693   6985.200541
VL65 -48657.961499  51175.146382  28207.337363 999999.999999
*  2023  1 16 20  5 30.00000000
PL65   1658.049379  -1651.442830   6459.483136   6985.668488
VL65 -49064.840484  52020.814688  25844.687817 999999.999999
*  2023  1 16 20  6  0.00000000
PL65   1510.316286  -1494.181021   6533.437496   6986.136368
VL65 -49414.307319  52811.059952  23453.715547 999999.999999
*  2023  1 16 20  6 30.00000000
PL65   1361.621072  -1334.632998   6600.179726   6986.604229
VL65 -49706.238889  53544.778849  21037.040547 999999.999999
*  2023  1 16 20  7  0.00000000
PL65   1212.136446  -1172.969919   6659.636683   6987.072033
VL65 -49940.578604  54220.929116  18597.309664 999999.999999
*  2023  1 16 20  7 30.00000000
PL65   1062.035185  -1009.365975   6711.743197   6987.539832
VL65 -50117.336067  54838.530393  16137.192399 999999.999999
*  2023  1 16 20  8  0.00000000
PL65    911.489940   -843.998205   6756.442140   6988.007520
VL65 -50236.585987  55396.665066  13659.378916 999999.999999
*  2023  1 16 20  8 30.00000000
PL65    760.673039   -677.046307   6793.684482   6988.475233
VL65 -50298.468547  55894.479812  11166.577652 999999.999999
*  2023  1 16 20  9  0.00000000
PL65    609.756292   -508.692437   6823.429341   6988.943043
VL65 -50303.189294  56331.185807   8661.511244 999999.999999
*  2023  1 16 20  9 30.00000000
PL65    458.910798   -339.121026   6845.644019   6989.410905
VL65 -50251.017234  56706.059204   6146.914013 999999.999999
*  2023  1 16 20 10  0.00000000
PL65    308.306752   -168.518574   6860.304038   6989.878796
VL65 -50142.283986  57018.443120   3625.530578 999999.999999
*  2023  1 16 20 10 30.00000000
PL65    158.113263      2.926552   6867.393168   6990.346571
VL65 -49977.384033  57267.749096   1100.113038 999999.999999
*  2023  1 16 20 11  0.00000000
PL65      8.498160    175.024321   6866.903439   6990.814330
VL65 -49756.774200  57453.457641  -1426.582185 999999.999999
*  2023  1 16 20 11 30.00000000
PL65   -140.372189    347.583248   6858.835155   6991.282286
VL65 -49480.972838  57575.118881  -3951.797279 999999.999999
EOF
